{
    "links": {
        "self": "http://www.neowsapp.com/rest/v1/neo/54016216?api_key=iIulBulltgU6a56xZRHN4H3l9WmuAYTsLGpBGhQ2"
    },
    "id": "54016216",
    "neo_reference_id": "54016216",
    "name": "(2020 FY)",
    "designation": "2020 FY",
    "nasa_jpl_url": "http://ssd.jpl.nasa.gov/sbdb.cgi?sstr=54016216",
    "absolute_magnitude_h": 23.286,
    "estimated_diameter": {
        "kilometers": {
            "estimated_diameter_min": 0.0585268266,
            "estimated_diameter_max": 0.1308699627
        },
        "meters": {
            "estimated_diameter_min": 58.5268265813,
            "estimated_diameter_max": 130.869962743
        },
        "miles": {
            "estimated_diameter_min": 0.0363668728,
            "estimated_diameter_max": 0.0813187996
        },
        "feet": {
            "estimated_diameter_min": 192.0171537209,
            "estimated_diameter_max": 429.3634085659
        }
    },
    "is_potentially_hazardous_asteroid": false,
    "close_approach_data": [
        {
            "close_approach_date": "2020-02-29",
            "close_approach_date_full": "2020-Feb-29 18:22",
            "epoch_date_close_approach": 1583000520000,
            "relative_velocity": {
                "kilometers_per_second": "10.6550599503",
                "kilometers_per_hour": "38358.2158210951",
                "miles_per_hour": "23834.3036028355"
            },
            "miss_distance": {
                "astronomical": "0.1817112033",
                "lunar": "70.6856580837",
                "kilometers": "27183608.968816971",
                "miles": "16891111.3619813598"
            },
            "orbiting_body": "Earth"
        }
    ],
    "orbital_data": {
        "orbit_id": "2",
        "orbit_determination_date": "2020-03-24 06:24:44",
        "first_observation_date": "2020-03-16",
        "last_observation_date": "2020-03-22",
        "data_arc_in_days": 6,
        "observations_used": 21,
        "orbit_uncertainty": "8",
        "minimum_orbit_intersection": ".177567",
        "jupiter_tisserand_invariant": "4.651",
        "epoch_osculation": "2458925.5",
        "eccentricity": ".2103273531254621",
        "semi_major_axis": "1.409648312713707",
        "inclination": "19.40793900442956",
        "ascending_node_longitude": "169.9679137335864",
        "orbital_period": "611.3143501383804",
        "perihelion_distance": "1.113160714262859",
        "perihelion_argument": "311.3211827184796",
        "aphelion_distance": "1.706135911164554",
        "perihelion_time": "2458868.810350349880",
        "mean_anomaly": "33.38425454829169",
        "mean_motion": ".5888950585218693",
        "equinox": "J2000",
        "orbit_class": {
            "orbit_class_type": "AMO",
            "orbit_class_description": "Near-Earth asteroid orbits similar to that of 1221 Amor",
            "orbit_class_range": "1.017 AU < q (perihelion) < 1.3 AU"
        }
    },
    "is_sentry_object": false
}